QIANFAN-33              
1 61566U 24185Q   25364.81664918  .00000586  00000+0  41389-3 0  9993
2 61566  88.9792  76.7968 0005067 265.4905  94.5693 13.96567971 71683
QIANFAN-34              
1 61567U 24185R   25364.77928373  .00000676  00000+0  43225-3 0  9998
2 61567  88.9768  76.3405 0003289 273.4702  86.6102 14.02323926 71884
QIANFAN-35              
1 61568U 24185S   25364.77643767  .00001236  00000+0  49258-3 0  9995
2 61568  88.9793  74.7663 0005449 208.0726 152.0176 14.28002295 72758
QIANFAN-36              
1 61569U 24185T   25364.82572705  .00000197  00000+0  26651-3 0  9992
2 61569  88.9778  79.1647 0005552   9.5176 350.6082 13.55594768 70379
QIANFAN-37              
1 62238U 24232B   25364.84201575  .00000112  00000+0  15467-3 0  9995
2 62238  89.0003  39.5017 0002472  85.1135 275.0299 13.50981077101610
QIANFAN-38              
1 62239U 24232C   25364.79263485  .00000099  00000+0  13453-3 0  9995
2 62239  89.0010  39.4236 0016018 138.1433 222.0946 13.50978772101666
QIANFAN-39              
1 62240U 24232D   25364.81616573  .00000467  00000+0  19162-3 0  9992
2 62240  89.0001  35.2411 0016922  27.3512 332.8568 14.25404709103960
QIANFAN-40              
1 62241U 24232E   25364.82555251  .00000105  00000+0  14411-3 0  9990
2 62241  89.0037  39.0098 0014860 144.9506 215.2626 13.50978821102035
